[{"OBJECT_NAME":"STARLINK-2628","OBJECT_ID":"2021-038G","EPOCH":"2026-03-09T22:51:58.687776","MEAN_MOTION":15.30188023,"ECCENTRICITY":0.00013012,"INCLINATION":53.1587,"RA_OF_ASC_NODE":356.9227,"ARG_OF_PERICENTER":123.2716,"MEAN_ANOMALY":236.8409,"EPHEMERIS_TYPE":0,"CLASSIFICATION_TYPE":"U","NORAD_CAT_ID":48359,"ELEMENT_SET_NO":999,"REV_AT_EPOCH":26711,"BSTAR":0.00021848604,"MEAN_MOTION_DOT":6.115e-5,"MEAN_MOTION_DDOT":0},{"OBJECT_NAME":"AETHER-2","OBJECT_ID":"2023-174AV","EPOCH":"2026-03-09T17:13:49.792224","MEAN_MOTION":15.33264165,"ECCENTRICITY":0.00086301,"INCLINATION":97.3931,"RA_OF_ASC_NODE":151.9008,"ARG_OF_PERICENTER":139.5247,"MEAN_ANOMALY":220.6639,"EPHEMERIS_TYPE":0,"CLASSIFICATION_TYPE":"U","NORAD_CAT_ID":58299,"ELEMENT_SET_NO":999,"REV_AT_EPOCH":12998,"BSTAR":0.00026165949,"MEAN_MOTION_DOT":8.341e-5,"MEAN_MOTION_DDOT":0}]
